IRIDIUM 26              
1 24903U 97043A   25308.54793308  .00000498  00000+0  16069-3 0  9993
2 24903  86.3973  51.6078 0002041  88.6574 271.4857 14.37277279476907
IRIDIUM 22              
1 24907U 97043E   25308.38525728  .00000462  00000+0  15204-3 0  9999
2 24907  86.3972  55.3365 0001980  94.2366 265.9057 14.36076221476894
DUMMY MASS 1            
1 24925U 97048A   25308.58669726  .00000587  00000+0  62248-4 0  9992
2 24925  86.3336  70.3578 0007350  27.3397 332.8213 14.87126999525997
DUMMY MASS 2            
1 24926U 97048B   25308.37038460  .00000576  00000+0  61340-4 0  9995
2 24926  86.3332  72.0921 0008543  36.4045 323.7759 14.86877473525736
IRIDIUM 29              
1 24944U 97051A   25308.42729967  .00000578  00000+0  18997-3 0  9995
2 24944  86.3927  85.0298 0002065  97.4833 262.6599 14.36604284473404
IRIDIUM 33              
1 24946U 97051C   25308.42488586  .00000434  00000+0  14559-3 0  9997
2 24946  86.3844  84.3040 0007358 356.0251   4.0886 14.34992622472858
IRIDIUM 28              
1 24948U 97051E   25308.66034527  .00000510  00000+0  16372-3 0  9997
2 24948  86.3935  82.3657 0001948  76.9862 283.1553 14.37508467474023
IRIDIUM 36              
1 24967U 97056C   25308.46247101  .00000504  00000+0  16121-3 0  9990
2 24967  86.3928 114.0828 0001863  85.9567 274.1844 14.37728154472373
